IRIDIUM 155             
1 43573U 18061E   24220.40294290  .00000029  00000+0  34218-5 0  9991
2 43573  86.4010 340.3535 0002183  88.0289 272.1157 14.34219789316064
IRIDIUM 154             
1 43574U 18061F   24219.89553444  .00000026  00000+0  22425-5 0  9996
2 43574  86.4014 340.6652 0002237  99.9310 260.2139 14.34220418316045
IRIDIUM 163             
1 43575U 18061G   24220.43465373  .00000632  00000+0  21867-3 0  9992
2 43575  86.4012 340.3770 0002233  96.0548 264.0903 14.34220875316092
IRIDIUM 156             
1 43576U 18061H   24220.26974849  .00000217  00000+0  70491-4 0  9994
2 43576  86.4013 340.4525 0002069  91.6161 268.5271 14.34218772316069
IRIDIUM 164             
1 43577U 18061J   24220.39025882  .00000154  00000+0  47904-4 0  9996
2 43577  86.4022 340.4296 0002497 108.6326 251.5141 14.34202856316123
IRIDIUM 159             
1 43578U 18061K   24219.87016233  .00000134  00000+0  40846-4 0  9994
2 43578  86.4012 340.5999 0002180  99.2894 260.8548 14.34219506316010
IRIDIUM 180             
1 43922U 19002A   24220.70688587 -.00000097  00000+0 -41732-4 0  9999
2 43922  86.3941 277.1220 0002345  97.2392 262.9071 14.34216714291787
IRIDIUM 176             
1 43923U 19002B   24220.22953613  .00001719  00000+0  26849-3 0  9993
2 43923  86.6072 277.3399 0002220  97.9484 262.1986 14.72276816299355
IRIDIUM 168             
1 43924U 19002C   24220.70054392  .00000392  00000+0  13287-3 0  9991
2 43924  86.3939 277.1822 0002174  95.2739 264.8704 14.34219076291729
IRIDIUM 173             
1 43925U 19002D   24219.71109760  .00000121  00000+0  36077-4 0  9994
2 43925  86.3943 277.5137 0002297  95.6514 264.4944 14.34217191291569
IRIDIUM 169             
1 43926U 19002E   24220.73569153  .00000717  00000+0  22774-3 0  9994
2 43926  86.4243 308.7210 0004029  80.3779 279.7875 14.38615298292682
IRIDIUM 172             
1 43927U 19002F   24220.68151322  .00000417  00000+0  14183-3 0  9996
2 43927  86.3941 277.1134 0002163  92.5883 267.5560 14.34219842291719
IRIDIUM 175             
1 43928U 19002G   24220.63175754  .00001200  00000+0  18632-3 0  9991
2 43928  86.1474 247.4033 0002750  89.0513 271.1019 14.72256428299407
IRIDIUM 171             
1 43929U 19002H   24220.52294740  .00000460  00000+0  15701-3 0  9998
2 43929  86.3951 277.4113 0002073  93.8650 266.2783 14.34218864291680
IRIDIUM 170             
1 43930U 19002J   24220.57555838  .00001872  00000+0  29286-3 0  9994
2 43930  86.6068 277.2005 0002322  93.4396 266.7086 14.72271467299412
IRIDIUM 167             
1 43931U 19002K   24220.65616140  .00000512  00000+0  17575-3 0  9996
2 43931  86.3942 277.1406 0002143  92.2455 267.8986 14.34216984291705
IRIDIUM 181             
1 56726U 23068S   24220.33202156  .00000838  00000+0  24174-3 0  9996
2 56726  86.8676 333.5003 0002189  90.6023 269.5430 14.43587610 64510
IRIDIUM 177             
1 56727U 23068T   24220.80522407  .00000176  00000+0  19678-4 0  9992
2 56727  86.1966 290.8541 0002053  90.8398 269.3058 14.80204990 66014
IRIDIUM 174             
1 56728U 23068U   24220.79980603  .00002708  00000+0  35308-3 0  9997
2 56728  86.1974 290.9641 0002303  86.5804 273.5681 14.80206810 66010
IRIDIUM 178             
1 56729U 23068V   24220.79434712  .00002992  00000+0  39048-3 0  9993
2 56729  86.5804 310.8816 0002400  84.8639 275.2856 14.80205580 66014
IRIDIUM 179             
1 56730U 23068W   24220.58612197  .00003238  00000+0  42301-3 0  9997
2 56730  86.6821 315.7535 0002415  96.0722 264.0775 14.80203385 65984
